AKEBONO (EXOS-D)        
1 19822U 89016A   17286.27014051  .00024927  34441-6  47744-3 0  9995
2 19822  75.0329 154.8761 1885351   8.1803 354.5844 11.74347291923076
HST                     
1 20580U 90037B   17286.49131769  .00000810  00000-0  38948-4 0  9993
2 20580  28.4700 305.7354 0002748  11.5487 113.1243 15.08884768308081
POLAR                   
1 23802U 96013A   17285.81388407 -.00000041  00000-0  00000-0 0  9992
2 23802  78.4967 267.2359 7292079 317.9806   4.6742  1.29843022103707
SWAS                    
1 25560U 98071A   17286.53557198  .00000315  00000-0  38473-4 0  9998
2 25560  69.8989 323.3959 0008284 346.7679  13.3258 14.93463028 22991
ORSTED                  
1 25635U 99008B   17286.56817287  .00000061  00000-0  22504-4 0  9999
2 25635  96.4656 164.6244 0137544 229.7654 129.1447 14.48022474983087
CXO                     
1 25867U 99040B   17288.35892888  .00000388  00000-0  00000-0 0  9996
2 25867  73.2564 287.7104 6808666 248.6940   0.3245  0.37806124  5379
XMM-NEWTON              
1 25989U 99066A   17287.33476337  .00000063  00000-0  00000+0 0  9992
2 25989  69.4799 358.1015 8154531  95.9623 359.9364  0.50136133 21489
TERRA                   
1 25994U 99068A   17288.44535476  .00000168  00000-0  37297-4 0  9992
2 25994  98.1989   1.7124 0000757  72.1783 288.0110 14.57123886948182
CLUSTER II-FM6 (SALSA)  
1 26410U 00041A   17287.27680116  .00000274  00000-0  00000-0 0  9997
2 26410 130.8901 334.0270 4335847 154.8868   0.6962  0.44151958  6286
CLUSTER II-FM7 (SAMBA)  
1 26411U 00041B   17287.30196490  .00000155  00000-0  00000-0 0  9997
2 26411 129.9502 335.3516 5024171 162.8186   0.7780  0.44231393  6324
CLUSTER II-FM5 (RUMBA)  
1 26463U 00045A   17287.29354239  .00000225  00000-0  00000-0 0  9991
2 26463 133.4957 333.8348 4728187 161.0427   0.7553  0.44229035  6202
CLUSTER II-FM8 (TANGO)  
1 26464U 00045B   17286.45387248  .00000236  00000-0  00000-0 0  9997
2 26464 130.8909 334.0223 4330821 154.8300 234.6857  0.44217808  6288
ODIN                    
1 26702U 01007A   17286.53658093  .00000544  00000-0  40177-4 0  9994
2 26702  97.6069 302.2789 0011223  17.2317 342.9289 15.07299177908874
TIMED                   
1 26998U 01055B   17286.55107631  .00000224  00000-0  28544-4 0  9992
2 26998  74.0711  79.5933 0000529 337.2716  22.8441 14.87945455859035
RHESSI                  
1 27370U 02004A   17286.54519708  .00004309  00000-0  15329-3 0  9997
2 27370  38.0331  47.0420 0012823 291.6666  68.2738 15.29136957864389
INTEGRAL                
1 27540U 02048A   17259.29525609  .00000878  00000-0  00000+0 0  9996
2 27540  49.4782 184.0329 8328941 263.3325   0.1367  0.37487053 14649
CORIOLIS                
1 27640U 03001A   17286.63639052  .00000014  00000-0  27524-4 0  9990
2 27640  98.7433 295.2546 0013543 331.1680 135.2579 14.18956799764767
SORCE                   
1 27651U 03004A   17286.57840487  .00000320  00000-0  47822-4 0  9997
2 27651  39.9969  21.9061 0023989 345.5619  14.4482 14.88745380798400
MOST                    
1 27843U 03031D   17286.58700988  .00000003  00000-0  21591-4 0  9995
2 27843  98.7149 293.0377 0010609  37.8044 322.3876 14.20554614740764
SCISAT 1                
1 27858U 03036A   17286.48886068  .00000063  00000-0  13883-4 0  9990
2 27858  73.9326 314.8348 0007433  18.0322 342.1115 14.77159077763243
SWIFT                   
1 28485U 04047A   17286.52797923  .00001354  00000-0  63966-4 0  9997
2 28485  20.5575  27.3480 0011137 294.0540  65.8729 15.03885689706029
FORMOSAT-3 FM6          
1 29047U 06011A   17286.45489782  .00000043  00000-0  33344-4 0  9999
2 29047  71.9783 305.8663 0052548 306.8712  52.7613 14.28603380601658
FORMOSAT-3 FM1          
1 29048U 06011B   17286.22897405  .00000055  00000-0  38105-4 0  9993
2 29048  71.9676 218.3468 0046062 265.0506  94.5371 14.28538746604103
FORMOSAT-3 FM5          
1 29049U 06011C   17286.56164094  .00000098  00000-0  55316-4 0  9992
2 29049  72.0224  23.7938 0036960 298.6181  61.1239 14.28593413599931
FORMOSAT-3 FM3          
1 29050U 06011D   17286.05268302  .00000286  00000-0  70959-4 0  9994
2 29050  72.0147 270.6318 0052171 301.4002  58.2053 14.58565446613654
FORMOSAT-3 FM4          
1 29051U 06011E   17286.44105428  .00000111  00000-0  59256-4 0  9991
2 29051  72.0044 287.9032 0068188 177.8942 182.2496 14.28619313602509
FORMOSAT-3 FM2          
1 29052U 06011F   17286.57721092  .00000124  00000-0  64902-4 0  9995
2 29052  72.0365 358.9302 0042338 262.4428  97.1898 14.28714763600024
CLOUDSAT                
1 29107U 06016A   17286.61268089 -.00000030  00000-0  34091-5 0  9992
2 29107  98.2115 228.8417 0001852  73.7122 286.4280 14.57109782609512
CALIPSO                 
1 29108U 06016B   17286.61120973  .00000165  00000-0  46764-4 0  9999
2 29108  98.2138 228.4088 0001353  77.8539 282.2811 14.57129929609587
HINODE (SOLAR-B)        
1 29479U 06041A   17286.55089527  .00000102  00000-0  28214-4 0  9991
2 29479  98.1691 290.1734 0016574 201.7644 158.2857 14.64860808590735
SJ-6C                   
1 29505U 06046A   17286.46550659 -.00000317  00000-0 -24092-4 0  9995
2 29505  97.8250 288.0142 0004675  62.8504 297.3179 14.94370053597539
SJ-6D                   
1 29506U 06046B   17286.51575668  .00000082  00000-0  13341-4 0  9991
2 29506  97.8450 287.4757 0003605 108.5438 251.6159 14.93314952597214
AGILE                   
1 31135U 07013A   17286.42111552  .00004023  00000-0  96064-4 0  9997
2 31135   2.4679 268.2048 0012246  37.4174 322.6732 15.30114320581856
AIM                     
1 31304U 07015A   17286.53861196  .00001585  00000-0  95693-4 0  9992
2 31304  98.0029 111.1437 0006548  92.8816 267.3163 15.12306463572829
FGRST (GLAST)           
1 33053U 08029A   17286.36022335  .00000779  00000-0  28224-4 0  9996
2 33053  25.5827 279.4827 0012248 207.9663 152.0214 15.10975829515210
WISE                    
1 36119U 09071A   17286.53687768  .00001524  00000-0  57512-4 0  9997
2 36119  97.4421 314.3238 0001112 231.4306 128.6834 15.28582908434356
SDO                     
1 36395U 10005A   17286.10257712 -.00000073  00000-0  00000-0 0  9992
2 36395  28.8931 138.3182 0001561  86.0687  92.6216  1.00273870 28287
CRYOSAT 2               
1 36508U 10013A   17286.53878910  .00000024  00000-0  51336-5 0  9991
2 36508  92.0243 230.8482 0005644 311.5439  48.5284 14.52174003398330
SPEKTR-R                
1 37755U 11037A   17272.04107253 -.00000112  00000-0  00000+0 0  9994
2 37755  68.5092 305.0853 6289769 352.4494   6.5188  0.10438175  2594
GCOM-W1 (SHIZUKU)       
1 38337U 12025A   17286.49463333  .00000115  00000-0  35478-4 0  9991
2 38337  98.2135 224.9859 0002048  75.1819  51.8527 14.57124950287584
NUSTAR                  
1 38358U 12031A   17286.16574234  .00001293  00000-0  62611-4 0  9995
2 38358   6.0260 172.9805 0012060 196.5884 163.3850 14.87843084290043
RBSP A                  
1 38752U 12046A   17285.76128936 -.00000156  00000-0  19943-3 0  9995
2 38752   9.8612 136.8262 6818478 242.6991  34.1845  2.68110295 50033
RBSP B                  
1 38753U 12046B   17285.67204075 -.00000163  00000-0  11837-3 0  9997
2 38753   9.8453 147.5790 6831829 221.9435  58.3947  2.65134642 49689
NEOSSAT                 
1 39089U 13009D   17286.54611421  .00000056  00000-0  35411-4 0  9999
2 39089  98.5443 128.7312 0010323 312.5173  47.5139 14.34402638242360
BRITE-AUSTRIA           
1 39091U 13009F   17286.56824989  .00000014  00000-0  20195-4 0  9996
2 39091  98.5391 130.1870 0009832 322.3047  37.7448 14.35044236242465
UNIBRITE                
1 39092U 13009G   17286.50822468  .00000039  00000-0  29242-4 0  9990
2 39092  98.5402 129.8074 0008618 316.0430  44.0069 14.34918724242446
IRIS                    
1 39197U 13033A   17286.53517812  .00000222  00000-0  37356-4 0  9999
2 39197  97.9305 106.2464 0028406 150.2535 210.0298 14.78445547231577
HISAKI (SPRINT-A)       
1 39253U 13049A   17286.05845064  .00000110  00000-0  58302-4 0  9999
2 39253  29.7194 125.6058 0137361 254.2340 104.3044 13.55177510202234
CASSIOPE                
1 39265U 13055A   17286.55909653  .00004799  00000-0  14194-3 0  9996
2 39265  80.9694 252.5026 0682168 270.1922  82.1162 14.23964647208353
DANDE                   
1 39267U 13055C   17286.57632175  .00004117  00000-0  12406-3 0  9990
2 39267  81.0107 265.3036 0708682 290.9269  61.7480 14.17964574205460
STSAT-3                 
1 39422U 13066G   17286.51934178 -.00000045  00000-0  10087-5 0  9999
2 39422  97.6451 345.1757 0022265 198.8136 161.2271 14.89504849211544
BRITE-PL                
1 39431U 13066R   17286.44531836  .00000179  00000-0  47609-4 0  9991
2 39431  97.7214 253.7985 0203896 109.5525 252.7810 14.46874837205358
SWARM B                 
1 39451U 13067A   17286.57703963  .00000732  00000-0  31307-4 0  9993
2 39451  87.7589 212.4661 0002418  61.6850 298.4639 15.21136274201287
SWARM A                 
1 39452U 13067B   17286.58121431  .00001947  00000-0  43899-4 0  9997
2 39452  87.3454 127.4098 0002275  96.6797 263.4719 15.42532013218343
SWARM C                 
1 39453U 13067C   17286.58114924  .00001946  00000-0  43860-4 0  9994
2 39453  87.3458 128.8313 0002294  97.5788 262.5729 15.42532040218301
BRITE-TORONTO           
1 40020U 14033L   17286.56008426  .00000162  00000-0  36393-4 0  9999
2 40020  97.8170 151.9120 0086576 311.0179  48.3562 14.66430807177432
OCO 2                   
1 40059U 14035A   17286.53673877  .00000072  00000-0  26121-4 0  9996
2 40059  98.2137 226.2080 0001356  60.6298 299.5036 14.57121383174636
BRITE-PL 2              
1 40119U 14049B   17286.46812930  .00000254  00000-0  36869-4 0  9997
2 40119  97.9321  11.7223 0018795  65.7096 294.6079 14.84194951170615
RESURS P2               
1 40360U 14087A   17286.54575231  .00001260  00000-0  43052-4 0  9996
2 40360  97.2763  18.1579 0012300  87.3619  87.6581 15.32077966156508
MMS 1                   
1 40482U 15011A   17282.01388889 -.00000139  00000-0  00000+0 0  9994
2 40482  22.3344 308.9561 9003193 159.3858  31.4644  0.35519717  8068
MMS 2                   
1 40483U 15011B   17278.97569444  .00000105  00000-0  00000+0 0  9995
2 40483  22.4145 308.9796 9003803 159.2387   3.3379  0.35518562  8041
MMS 3                   
1 40484U 15011C   17282.74375000 -.00000148  00000-0  00000+0 0  9997
2 40484  22.3518 308.9389 9015804 159.3950 124.9303  0.35494681  8057
MMS 4                   
1 40485U 15011D   17282.01041667 -.00000138  00000-0  00000+0 0  9996
2 40485  22.3383 308.9544 9017650 159.3329  31.3381  0.35489454  8040
ASTROSAT                
1 40930U 15052A   17286.03081541  .00000881  00000-0  34929-4 0  9993
2 40930   5.9931 115.6022 0008216 104.8020 255.3005 14.76160207110392
DAMPE                   
1 41173U 15078A   17286.55740336  .00000104  00000-0  71893-5 0  9992
2 41173  97.2912 291.2589 0015756  96.2419  24.9286 15.23614770101480
PISAT                   
1 41784U 16059B   17286.12202149  .00000159  00000-0  39930-4 0  9993
2 41784  98.1545 346.4303 0032805 148.4726 211.8451 14.63261640 55826
HXMT                    
1 42758U 17034A   17286.53953006 -.00000218  00000-0  00000-0 0  9998
2 42758  43.0197 358.0066 0008481   8.3999  77.8408 15.08099468 18181
FLYING LAPTOP           
1 42831U 17042G   17286.35618358  .00000523  00000-0  58683-4 0  9999
2 42831  97.6075 192.7767 0013000 304.9424  55.0573 14.90718550 13552
